1 40903U 15049E   20350.12723339  .00003980  00000-0  89024-4 0  9992
2 40903  97.2653  39.0367 0011936 334.2601 109.9920 15.44014566294345